{
  "type": "Feature",
  "crs": {
    "type": "name",
    "properties": {
      "name": "PROJCS[\"KOREA_GRS80_127TM\",GEOGCS[\"GCS_GRS_1980\",DATUM[\"D_GRS_1980\",SPHEROID[\"GRS1980\",6378137.0,298.257222101]],PRIMEM[\"Greenwich\",0.0],UNIT[\"Degree\",0.0174532925199433]],PROJECTION[\"Transverse_Mercator\"],PARAMETER[\"false_easting\",200000.0],PARAMETER[\"false_northing\",600000.0],PARAMETER[\"central_meridian\",127.0],PARAMETER[\"scale_factor\",1.0],PARAMETER[\"latitude_of_origin\",38.0],UNIT[\"Meter\",1.0]]"
    }
  },
  "coordinates": [0, 0, 0]
}
